{"type": "FeatureCollection", "features": [ {"type": "Feature", "properties": {"norad_id": 65077, "name": "CREW DRAGON 11", "group": "stations", "lat": 51.27875020039602, "lon": -76.61804818201095, "alt_km": 412.4451417482478, "timestamp": "2025-12-04T05:42:42.177886+00:00", "meta": {"OBJECT_NAME": "CREW DRAGON 11", "OBJECT_ID": "2025-166A", "EPOCH": "2025-12-03T21:33:39.277728", "MEAN_MOTION": 15.4928465, "ECCENTRICITY": 0.00035922, "INCLINATION": 51.6303, "RA_OF_ASC_NODE": 186.2514, "ARG_OF_PERICENTER": 201.3576, "MEAN_ANOMALY": 158.7263, "EPHEMERIS_TYPE": 0, "CLASSIFICATION_TYPE": "U", "NORAD_CAT_ID": 65077, "ELEMENT_SET_NO": 999, "REV_AT_EPOCH": 214, "BSTAR": 0.00025253496, "MEAN_MOTION_DOT": 0.00013627, "MEAN_MOTION_DDOT": 0}, "tle": {"line1": "1 65077U 25166A   25337.89837127  .00013627  00000+0  25253-3 0  9998", "line2": "2 65077  51.6303 186.2514 0003592 201.3576 158.7263 15.49284650  2148"}}, "geometry": {"type": "Point", "coordinates": [-76.61804818201095, 51.27875020039602]}}, {"type": "Feature", "properties": {"norad_id": 65304, "name": "DRAGON CRS-33", "group": "stations", "lat": 51.27875012272378, "lon": -76.61804715599125, "alt_km": 412.44514173258176, "timestamp": "2025-12-04T05:42:42.177896+00:00", "meta": {"OBJECT_NAME": "DRAGON CRS-33", "OBJECT_ID": "2025-186A", "EPOCH": "2025-12-03T21:33:39.277728", "MEAN_MOTION": 15.4928465, "ECCENTRICITY": 0.00035922, "INCLINATION": 51.6303, "RA_OF_ASC_NODE": 186.2514, "ARG_OF_PERICENTER": 201.3576, "MEAN_ANOMALY": 158.7263, "EPHEMERIS_TYPE": 0, "CLASSIFICATION_TYPE": "U", "NORAD_CAT_ID": 65304, "ELEMENT_SET_NO": 999, "REV_AT_EPOCH": 11, "BSTAR": 0.00025253496, "MEAN_MOTION_DOT": 0.00013627, "MEAN_MOTION_DDOT": 0}, "tle": {"line1": "1 65304U 25186A   25337.89837127  .00013627  00000+0  25253-3 0  9993", "line2": "2 65304  51.6303 186.2514 0003592 201.3576 158.7263 15.49284650   116"}}, "geometry": {"type": "Point", "coordinates": [-76.61804715599125, 51.27875012272378]}}, {"type": "Feature", "properties": {"norad_id": 65586, "name": "PROGRESS-MS 32", "group": "stations", "lat": 51.278750037284375, "lon": -76.61804602737038, "alt_km": 412.4451417153505, "timestamp": "2025-12-04T05:42:42.177907+00:00", "meta": {"OBJECT_NAME": "PROGRESS-MS 32", "OBJECT_ID": "2025-204A", "EPOCH": "2025-12-03T21:33:39.277728", "MEAN_MOTION": 15.4928465, "ECCENTRICITY": 0.00035922, "INCLINATION": 51.6303, "RA_OF_ASC_NODE": 186.2514, "ARG_OF_PERICENTER": 201.3576, "MEAN_ANOMALY": 158.7263, "EPHEMERIS_TYPE": 0, "CLASSIFICATION_TYPE": "U", "NORAD_CAT_ID": 65586, "ELEMENT_SET_NO": 999, "REV_AT_EPOCH": 27, "BSTAR": 0.00025253496, "MEAN_MOTION_DOT": 0.00013627, "MEAN_MOTION_DDOT": 0}, "tle": {"line1": "1 65586U 25204A   25337.89837127  .00013627  00000+0  25253-3 0  9996", "line2": "2 65586  51.6303 186.2514 0003592 201.3576 158.7263 15.49284650   275"}}, "geometry": {"type": "Point", "coordinates": [-76.61804602737038, 51.278750037284375]}}, {"type": "Feature", "properties": {"norad_id": 65616, "name": "CYGNUS NG-23", "group": "stations", "lat": 51.278749967379476, "lon": -76.61804510395459, "alt_km": 412.4451417012533, "timestamp": "2025-12-04T05:42:42.177916+00:00", "meta": {"OBJECT_NAME": "CYGNUS NG-23", "OBJECT_ID": "2025-208A", "EPOCH": "2025-12-03T21:33:39.277728", "MEAN_MOTION": 15.4928465, "ECCENTRICITY": 0.00035922, "INCLINATION": 51.6303, "RA_OF_ASC_NODE": 186.2514, "ARG_OF_PERICENTER": 201.3576, "MEAN_ANOMALY": 158.7263, "EPHEMERIS_TYPE": 0, "CLASSIFICATION_TYPE": "U", "NORAD_CAT_ID": 65616, "ELEMENT_SET_NO": 999, "REV_AT_EPOCH": 22, "BSTAR": 0.00025253496, "MEAN_MOTION_DOT": 0.00013627, "MEAN_MOTION_DDOT": 0}, "tle": {"line1": "1 65616U 25208A   25337.89837127  .00013627  00000+0  25253-3 0  9994", "line2": "2 65616  51.6303 186.2514 0003592 201.3576 158.7263 15.49284650   224"}}, "geometry": {"type": "Point", "coordinates": [-76.61804510395459, 51.278749967379476]}}, {"type": "Feature", "properties": {"norad_id": 65729, "name": "DRAGONFLY", "group": "stations", "lat": 17.846992797979112, "lon": -15.595214674062339, "alt_km": 359.4603675744165, "timestamp": "2025-12-04T05:42:42.177926+00:00", "meta": {"OBJECT_NAME": "DRAGONFLY", "OBJECT_ID": "1998-067XH", "EPOCH": "2025-12-03T19:52:13.613376", "MEAN_MOTION": 15.68394911, "ECCENTRICITY": 0.00065361, "INCLINATION": 51.6246, "RA_OF_ASC_NODE": 181.2773, "ARG_OF_PERICENTER": 221.3225, "MEAN_ANOMALY": 138.7278, "EPHEMERIS_TYPE": 0, "CLASSIFICATION_TYPE": "U", "NORAD_CAT_ID": 65729, "ELEMENT_SET_NO": 999, "REV_AT_EPOCH": 1176, "BSTAR": 0.0014908733, "MEAN_MOTION_DOT": 0.00174585, "MEAN_MOTION_DDOT": 0}, "tle": {"line1": "1 65729U 98067XH  25337.82793534  .00174585  00000+0  14909-2 0  9994", "line2": "2 65729  51.6246 181.2773 0006536 221.3225 138.7278 15.68394911 11769"}}, "geometry": {"type": "Point", "coordinates": [-15.595214674062339, 17.846992797979112]}}, {"type": "Feature", "properties": {"norad_id": 65730, "name": "1998-067XJ", "group": "stations", "lat": 30.275683391753923, "lon": -159.87837055669272, "alt_km": 157.07583765035088, "timestamp": "2025-12-04T05:42:42.177937+00:00", "meta": {"OBJECT_NAME": "1998-067XJ", "OBJECT_ID": "1998-067XJ", "EPOCH": "2025-12-02T19:46:01.269984", "MEAN_MOTION": 16.23931094, "ECCENTRICITY": 0.00101147, "INCLINATION": 51.6061, "RA_OF_ASC_NODE": 180.4655, "ARG_OF_PERICENTER": 256.3912, "MEAN_ANOMALY": 103.5981, "EPHEMERIS_TYPE": 0, "CLASSIFICATION_TYPE": "U", "NORAD_CAT_ID": 65730, "ELEMENT_SET_NO": 999, "REV_AT_EPOCH": 1168, "BSTAR": 0.002285911, "MEAN_MOTION_DOT": 0.06330363, "MEAN_MOTION_DDOT": 1.1931217e-05}, "tle": {"line1": "1 65730U 98067XJ  25336.82362581  .06330363  11931-4  22859-2 0  9996", "line2": "2 65730  51.6061 180.4655 0010114 256.3912 103.5981 16.23931094 11687"}}, "geometry": {"type": "Point", "coordinates": [-159.87837055669272, 30.275683391753923]}}, {"type": "Feature", "properties": {"norad_id": 65731, "name": "1998-067XK", "group": "stations", "lat": -8.342223110908902, "lon": 173.6259611982109, "alt_km": 382.34991865136635, "timestamp": "2025-12-04T05:42:42.177947+00:00", "meta": {"OBJECT_NAME": "1998-067XK", "OBJECT_ID": "1998-067XK", "EPOCH": "2025-12-03T20:33:14.862528", "MEAN_MOTION": 15.63596152, "ECCENTRICITY": 0.00059045, "INCLINATION": 51.628, "RA_OF_ASC_NODE": 182.229, "ARG_OF_PERICENTER": 193.4783, "MEAN_ANOMALY": 166.6055, "EPHEMERIS_TYPE": 0, "CLASSIFICATION_TYPE": "U", "NORAD_CAT_ID": 65731, "ELEMENT_SET_NO": 999, "REV_AT_EPOCH": 1175, "BSTAR": 0.0013142835, "MEAN_MOTION_DOT": 0.00126041, "MEAN_MOTION_DDOT": 0}, "tle": {"line1": "1 65731U 98067XK  25337.85642202  .00126041  00000+0  13143-2 0  9998", "line2": "2 65731  51.6280 182.2290 0005904 193.4783 166.6055 15.63596152 11759"}}, "geometry": {"type": "Point", "coordinates": [173.6259611982109, -8.342223110908902]}}, {"type": "Feature", "properties": {"norad_id": 65732, "name": "RSP-03", "group": "stations", "lat": -44.28347055625549, "lon": 50.37345712180955, "alt_km": 371.6586069974828, "timestamp": "2025-12-04T05:42:42.177957+00:00", "meta": {"OBJECT_NAME": "RSP-03", "OBJECT_ID": "1998-067XL", "EPOCH": "2025-12-03T19:29:20.077152", "MEAN_MOTION": 15.65846049, "ECCENTRICITY": 0.00066871, "INCLINATION": 51.6261, "RA_OF_ASC_NODE": 181.9259, "ARG_OF_PERICENTER": 196.3432, "MEAN_ANOMALY": 163.7349, "EPHEMERIS_TYPE": 0, "CLASSIFICATION_TYPE": "U", "NORAD_CAT_ID": 65732, "ELEMENT_SET_NO": 999, "REV_AT_EPOCH": 1176, "BSTAR": 0.0012908506, "MEAN_MOTION_DOT": 0.00135578, "MEAN_MOTION_DDOT": 0}, "tle": {"line1": "1 65732U 98067XL  25337.81203793  .00135578  00000+0  12909-2 0  9997", "line2": "2 65732  51.6261 181.9259 0006687 196.3432 163.7349 15.65846049 11762"}}, "geometry": {"type": "Point", "coordinates": [50.37345712180955, -44.28347055625549]}}, {"type": "Feature", "properties": {"norad_id": 65733, "name": "GHS-01", "group": "stations", "lat": -4.078701222981075, "lon": 175.54182808698434, "alt_km": 361.500308785824, "timestamp": "2025-12-04T05:42:42.177967+00:00", "meta": {"OBJECT_NAME": "GHS-01", "OBJECT_ID": "1998-067XM", "EPOCH": "2025-12-03T22:05:54.332736", "MEAN_MOTION": 15.70494881, "ECCENTRICITY": 0.0007009, "INCLINATION": 51.6271, "RA_OF_ASC_NODE": 180.4028, "ARG_OF_PERICENTER": 220.9221, "MEAN_ANOMALY": 139.1251, "EPHEMERIS_TYPE": 0, "CLASSIFICATION_TYPE": "U", "NORAD_CAT_ID": 65733, "ELEMENT_SET_NO": 999, "REV_AT_EPOCH": 1179, "BSTAR": 0.001848703, "MEAN_MOTION_DOT": 0.00238165, "MEAN_MOTION_DDOT": 0}, "tle": {"line1": "1 65733U 98067XM  25337.92076774  .00238165  00000+0  18487-2 0  9990", "line2": "2 65733  51.6271 180.4028 0007009 220.9221 139.1251 15.70494881 11792"}}, "geometry": {"type": "Point", "coordinates": [175.54182808698434, -4.078701222981075]}}, {"type": "Feature", "properties": {"norad_id": 65941, "name": "YOTSUBA-KULOVER", "group": "stations", "lat": -45.72556763842159, "lon": 128.3006923513735, "alt_km": 398.6801299441786, "timestamp": "2025-12-04T05:42:42.177978+00:00", "meta": {"OBJECT_NAME": "YOTSUBA-KULOVER", "OBJECT_ID": "1998-067XN", "EPOCH": "2025-12-03T13:03:34.819200", "MEAN_MOTION": 15.57842234, "ECCENTRICITY": 0.00020894, "INCLINATION": 51.628, "RA_OF_ASC_NODE": 186.1413, "ARG_OF_PERICENTER": 172.2888, "MEAN_ANOMALY": 187.8136, "EPHEMERIS_TYPE": 0, "CLASSIFICATION_TYPE": "U", "NORAD_CAT_ID": 65941, "ELEMENT_SET_NO": 999, "REV_AT_EPOCH": 842, "BSTAR": 0.001074186, "MEAN_MOTION_DOT": 0.0008193, "MEAN_MOTION_DDOT": 0}, "tle": {"line1": "1 65941U 98067XN  25337.54415300  .00081930  00000+0  10742-2 0  9993", "line2": "2 65941  51.6280 186.1413 0002089 172.2888 187.8136 15.57842234  8427"}}, "geometry": {"type": "Point", "coordinates": [128.3006923513735, -45.72556763842159]}}]}